{
  "version": 0.6,
  "generator": "Overpass API 0.7.60.6 e2dc3e5b",
  "osm3s": {
    "timestamp_osm_base": "2023-07-15T09:32:29Z",
    "copyright": "The data included in this document is from www.openstreetmap.org. The data is made available under ODbL."
  },
  "elements": [

{
  "type": "node",
  "id": 633173968,
  "lat": 52.3285770,
  "lon": 9.7818037,
  "tags": {
    "addr:city": "Hannover",
    "addr:country": "DE",
    "addr:housenumber": "27",
    "addr:postcode": "30519",
    "addr:street": "Am Mittelfelde",
    "brand": "Tesla",
    "brand:wikidata": "Q478214",
    "brand:wikipedia": "en:Tesla, Inc.",
    "name": "Tesla ServiceCenter",
    "opening_hours": "Mo-Sa 09:00-18:00",
    "operator": "Tesla Germany GmbH",
    "phone": "+49 511 93689013",
    "second_hand": "yes",
    "service:vehicle:Sale": "yes",
    "service:vehicle:air_conditioning": "yes",
    "service:vehicle:batteries": "yes",
    "service:vehicle:brakes": "yes",
    "service:vehicle:car_repair": "yes",
    "service:vehicle:electrical": "yes",
    "service:vehicle:inspection": "yes",
    "service:vehicle:new_car": "yes",
    "service:vehicle:new_car_sales": "yes",
    "service:vehicle:repairs": "yes",
    "service:vehicle:tyres": "yes",
    "service:vehicle:wheels": "yes",
    "shop": "car",
    "website": "https://www.tesla.com/de_de/findus/location/store/3951"
  }
},
{
  "type": "node",
  "id": 1141394336,
  "lat": 58.5781248,
  "lon": 16.2144179,
  "tags": {
    "addr:city": "Norrköping",
    "addr:country": "SE",
    "addr:county": "Östergötlands län",
    "addr:housenumber": "2",
    "addr:municipality": "Norrköpings kommun",
    "addr:street": "Fjärilsgatan",
    "brand": "Tesla",
    "brand:wikidata": "Q478214",
    "brand:wikipedia": "en:Tesla, Inc.",
    "name": "Tesla",
    "shop": "car"
  }
},
{
  "type": "node",
  "id": 1298826872,
  "lat": 59.1351535,
  "lon": 9.6670483,
  "tags": {
    "brand": "Tesla",
    "name": "Tesla Porsgrunn",
    "ref:teslastore": "porsgrunnservice",
    "service:vehicle:car_repair": "yes",
    "service:vehicle:new_car_sales": "yes",
    "shop": "car",
    "website": "https://www.tesla.com/no_NO/findus/location/store/porsgrunnservice"
  }
},
{
  "type": "node",
  "id": 1387190541,
  "lat": 38.8003970,
  "lon": -121.2107840,
  "tags": {
    "addr:housenumber": "4361",
    "brand": "Tesla",
    "brand:wikidata": "Q478214",
    "brand:wikipedia": "en:Tesla, Inc.",
    "name": "Tesla Motors Rocklin",
    "shop": "car"
  }
},
{
  "type": "node",
  "id": 1645859263,
  "lat": 60.2703115,
  "lon": 24.8779691,
  "tags": {
    "addr:city": "Vantaa",
    "addr:housenumber": "1",
    "addr:postcode": "01610",
    "addr:street": "Vetokuja",
    "brand": "Tesla",
    "brand:wikidata": "Q478214",
    "brand:wikipedia": "en:Tesla, Inc.",
    "name": "Tesla",
    "opening_hours": "Mo-Fr 08:00-18:00; Sa 10:00-16:00; Su off",
    "operator": "Tesla Motors",
    "phone": "+358942451773",
    "service:vehicle:car_repair": "yes",
    "service:vehicle:new_car_sales": "yes",
    "shop": "car",
    "website": "https://www.tesla.com/fi"
  }
},
{
  "type": "node",
  "id": 1834805262,
  "lat": 33.6151738,
  "lon": -117.8753642,
  "tags": {
    "addr:city": "Newport Beach",
    "addr:housenumber": "367",
    "addr:postcode": "92660",
    "addr:state": "CA",
    "addr:street": "Newport Center Drive",
    "branch": "Newport Beach-Fashion Island",
    "brand": "Tesla",
    "brand:wikidata": "Q478214",
    "brand:wikipedia": "en:Tesla, Inc.",
    "name": "Tesla",
    "opening_hours": "Mo-Sa 10:00-20:00; Su 10:00-18:00",
    "phone": "+1 949 219 0040",
    "shop": "car",
    "source": "survey",
    "website": "https://www.tesla.com/findus/location/store/fashionisland"
  }
},
{
  "type": "node",
  "id": 2018936934,
  "lat": 43.7245405,
  "lon": -79.4534193,
  "tags": {
    "brand": "Tesla",
    "brand:wikidata": "Q478214",
    "brand:wikipedia": "en:Tesla, Inc.",
    "name": "Tesla",
    "shop": "car"
  }
},
{
  "type": "node",
  "id": 2077041353,
  "lat": 37.7844816,
  "lon": -122.4214774,
  "tags": {
    "brand": "Tesla",
    "brand:wikidata": "Q478214",
    "brand:wikipedia": "en:Tesla, Inc.",
    "name": "Tesla",
    "opening_hours": "Mo-Fr 09:00-19:00; Sa 10:00-18:00; Su 11:00-18:00",
    "phone": "+1 415 2689487",
    "shop": "car",
    "website": "https://www.tesla.com/"
  }
},
{
  "type": "node",
  "id": 2312083204,
  "lat": 47.6230510,
  "lon": -122.3387199,
  "tags": {
    "addr:city": "Seattle",
    "addr:housenumber": "435",
    "addr:postcode": "98109",
    "addr:street": "Westlake Avenue North",
    "brand": "Tesla",
    "brand:wikidata": "Q478214",
    "brand:wikipedia": "en:Tesla, Inc.",
    "car:type": "electric",
    "name": "Tesla",
    "opening_hours": "Mo-Sa 10:00-18:00; Su 12:00-17:00",
    "phone": "+1 206-682-2625",
    "shop": "car",
    "source": "King County GIS;data.seattle.gov",
    "website": "https://www.tesla.com/findus/location/store/seattlewestlake"
  }
},
{
  "type": "node",
  "id": 2561939902,
  "lat": 37.4421262,
  "lon": -122.1725542,
  "tags": {
    "brand": "Tesla",
    "brand:wikidata": "Q478214",
    "brand:wikipedia": "en:Tesla, Inc.",
    "name": "Tesla",
    "shop": "car"
  }
},
{
  "type": "node",
  "id": 2565271220,
  "lat": 37.4421409,
  "lon": -122.1729638,
  "tags": {
    "brand": "Tesla",
    "brand:wikidata": "Q478214",
    "brand:wikipedia": "en:Tesla, Inc.",
    "name": "Tesla",
    "shop": "car"
  }
},
{
  "type": "node",
  "id": 2682146367,
  "lat": 48.8269215,
  "lon": 9.0994845,
  "tags": {
    "addr:city": "Stuttgart",
    "addr:country": "DE",
    "addr:housenumber": "38",
    "addr:postcode": "70499",
    "addr:street": "Motorstraße",
    "brand": "Tesla",
    "name": "Tesla Service Center Stuttgart",
    "opening_hours": "Mo-Fr 10:00-18:30; Sa 10:00-17:00; Su,PH off",
    "phone": "+49 711 20702009",
    "shop": "car",
    "website": "https://www.teslamotors.com/de_DE/findus/location/service/stuttgart"
  }
},
{
  "type": "node",
  "id": 2707561696,
  "lat": 33.9762724,
  "lon": -118.3829210,
  "tags": {
    "brand": "Tesla",
    "brand:wikidata": "Q478214",
    "name": "Tesla",
    "shop": "car"
  }
},
{
  "type": "node",
  "id": 2748575543,
  "lat": 51.4854253,
  "lon": 5.4299367,
  "tags": {
    "addr:city": "Eindhoven",
    "addr:housenumber": "1111",
    "addr:postcode": "5626AG",
    "addr:street": "Boschdijk",
    "name": "Tesla store",
    "shop": "car",
    "source": "BAG",
    "source:date": "2014-03-24"
  }
},
{
  "type": "node",
  "id": 2749177172,
  "lat": 53.2232506,
  "lon": 6.6115538,
  "tags": {
    "addr:city": "Groningen",
    "addr:housenumber": "9",
    "addr:postcode": "9723HG",
    "addr:street": "Rostockweg",
    "brand": "Tesla",
    "brand:wikidata": "Q478214",
    "brand:wikipedia": "en:Tesla, Inc.",
    "name": "Tesla Groningen",
    "operator": "Tesla",
    "shop": "car",
    "source": "BAG",
    "source:date": "2014-03-24"
  }
},
{
  "type": "node",
  "id": 2816413035,
  "lat": 52.3606970,
  "lon": 4.8827822,
  "tags": {
    "addr:city": "Amsterdam",
    "addr:housenumber": "29",
    "addr:postcode": "1071BM",
    "addr:street": "Pieter Cornelisz. Hooftstraat",
    "brand": "Tesla",
    "brand:wikidata": "Q478214",
    "brand:wikipedia": "en:Tesla, Inc.",
    "name": "Tesla Motors",
    "opening_hours": "Mo 10:00-18:00; Tu 10:00-20:00; Sa 10:00-17:00; Su 10:00-17:00",
    "phone": "+31 20 364 0003",
    "shop": "car",
    "source": "BAG",
    "source:date": "2014-03-24",
    "website": "https://www.teslamotors.com/",
    "wheelchair": "yes"
  }
},
{
  "type": "node",
  "id": 2827505614,
  "lat": 40.6831865,
  "lon": -74.0063047,
  "tags": {
    "addr:housenumber": "160",
    "addr:postcode": "11231",
    "addr:street": "Van Brunt Street",
    "car:repair": "yes",
    "name": "Tesla Motors",
    "opening_hours": "Mo-Sa 10:00-18:00; Su 12:00-17:00 \"sales\"||Mo-Fr 08:00-17:00; Sa 08:00-16:00 \"service\"",
    "phone": "+1-718-510-8046",
    "shop": "car",
    "website": "https://www.tesla.com/findus/location/store/brooklyn"
  }
},
{
  "type": "node",
  "id": 2848643744,
  "lat": 51.9650553,
  "lon": 6.0037982,
  "tags": {
    "addr:city": "Duiven",
    "addr:housenumber": "32",
    "addr:postcode": "6921EW",
    "addr:street": "Geograaf",
    "brand": "Tesla",
    "brand:wikidata": "Q478214",
    "brand:wikipedia": "en:Tesla, Inc.",
    "name": "Tesla",
    "shop": "car",
    "source": "BAG",
    "source:date": "2014-05-07"
  }
},
{
  "type": "node",
  "id": 2862973877,
  "lat": 52.3110078,
  "lon": 4.9366124,
  "tags": {
    "addr:city": "Amsterdam",
    "addr:housenumber": "122",
    "addr:postcode": "1101EN",
    "addr:street": "Burgemeester Stramanweg",
    "brand": "Tesla",
    "brand:wikidata": "Q478214",
    "internet_access": "wlan",
    "name": "Tesla Amsterdam Zuid-Oost",
    "operator": "Tesla",
    "phone": "+31 20 365 0008",
    "shop": "car",
    "source": "BAG",
    "source:date": "2014-05-07",
    "website": "https://www.teslamotors.com/nl_NL/"
  }
},
{
  "type": "node",
  "id": 2875613673,
  "lat": 52.5135521,
  "lon": 5.0087844,
  "tags": {
    "addr:city": "Purmerend",
    "addr:housenumber": "84",
    "addr:postcode": "1446WP",
    "addr:street": "Component",
    "brand": "Tesla",
    "brand:wikidata": "Q478214",
    "name": "Tesla",
    "shop": "car",
    "source": "BAG",
    "source:date": "2014-05-20"
  }
},
{
  "type": "node",
  "id": 2932879598,
  "lat": 51.1998895,
  "lon": 5.9928297,
  "tags": {
    "addr:city": "Roermond",
    "addr:housenumber": "1",
    "addr:postcode": "6041TA",
    "addr:street": "Mijnheerkensweg",
    "name": "Tesla Service Center Roermond",
    "shop": "car",
    "source": "BAG",
    "source:date": "2014-06-25"
  }
},
{
  "type": "node",
  "id": 2995184286,
  "lat": 47.6616502,
  "lon": -122.2990343,
  "tags": {
    "addr:city": "Seattle",
    "addr:housenumber": "2627",
    "addr:postcode": "98105",
    "addr:street": "Northeast 46th Street",
    "brand": "Tesla",
    "brand:wikidata": "Q478214",
    "brand:wikipedia": "en:Tesla, Inc.",
    "name": "Tesla",
    "opening_hours": "Mo-Sa 09:30-21:00; Su 11:00-18:00",
    "operator": "Tesla Motors",
    "second_hand": "no",
    "shop": "car",
    "source:addr:id": "1023886",
    "wheelchair": "yes"
  }
},
{
  "type": "node",
  "id": 3070008222,
  "lat": 35.4258098,
  "lon": 139.5375458,
  "tags": {
    "brand": "Tesla Motors",
    "name": "Tesla",
    "operator": "Tesla Motors Inc.",
    "shop": "car"
  }
},
{
  "type": "node",
  "id": 3070391170,
  "lat": 30.1828778,
  "lon": 120.2140102,
  "tags": {
    "brand": "Tesla",
    "name": "Tesla",
    "operator": "Tesla Motors Inc.",
    "shop": "car"
  }
},
{
  "type": "node",
  "id": 3097492391,
  "lat": 63.4397810,
  "lon": 10.4633321,
  "tags": {
    "brand": "Tesla",
    "level": "0",
    "name": "Tesla Trondheim",
    "ref:teslastore": "trondheim",
    "service:vehicle:car_repair": "yes",
    "service:vehicle:new_car_sales": "yes",
    "shop": "car",
    "website": "https://www.tesla.com/no_NO/findus/location/store/trondheim"
  }
},
{
  "type": "node",
  "id": 3097506677,
  "lat": 45.4831716,
  "lon": 9.1890267,
  "tags": {
    "addr:city": "Milano",
    "addr:country": "IT",
    "addr:housenumber": "4",
    "addr:postcode": "20154",
    "addr:street": "Piazza Gae Aulenti",
    "brand": "Tesla",
    "brand:wikidata": "Q478214",
    "brand:wikipedia": "en:Tesla, Inc.",
    "check_date:opening_hours": "2023-06-17",
    "name": "Tesla",
    "opening_hours": "Mo-Sa 10:30-19:00",
    "operator": "Tesla Motors",
    "shop": "car",
    "website": "https://www.teslamotors.com/",
    "wheelchair": "yes"
  }
},
{
  "type": "node",
  "id": 3136081532,
  "lat": 38.5965252,
  "lon": -121.4027480,
  "tags": {
    "addr:city": "Sacramento",
    "addr:housenumber": "2535",
    "addr:postcode": "95825",
    "addr:street": "Arden Way",
    "brand": "Tesla",
    "brand:wikidata": "Q478214",
    "name": "Tesla",
    "shop": "car"
  }
},
{
  "type": "node",
  "id": 3137312270,
  "lat": 50.0051855,
  "lon": 14.5669880,
  "tags": {
    "brand": "Tesla",
    "brand:wikidata": "Q478214",
    "brand:wikipedia": "en:Tesla, Inc.",
    "name": "Tesla",
    "shop": "car",
    "website": "http://www.tesla.cz"
  }
},
{
  "type": "node",
  "id": 3162879069,
  "lat": 48.7049374,
  "lon": 6.2522441,
  "tags": {
    "brand": "Tesla",
    "brand:wikidata": "Q478214",
    "brand:wikipedia": "en:Tesla, Inc.",
    "name": "Tesla",
    "shop": "car",
    "source": "survey"
  }
},
{
  "type": "node",
  "id": 3213015731,
  "lat": 57.6428750,
  "lon": 11.9942460,
  "tags": {
    "brand": "Tesla",
    "name": "Tesla",
    "opening_hours": "Tu-Fr 10:00-18:00; Sa 10:00-15:00",
    "shop": "car"
  }
},
{
  "type": "node",
  "id": 3334893609,
  "lat": 36.1449483,
  "lon": -115.1036776,
  "tags": {
    "addr:city": "Las Vegas",
    "addr:housenumber": "3250",
    "addr:postcode": "89104",
    "addr:state": "NV",
    "addr:street": "East Sahara Avenue",
    "brand": "Tesla",
    "brand:wikidata": "Q478214",
    "name": "Tesla",
    "opening_hours": "Mo-Sa 08:00-19:00",
    "phone": "+1 702-473-7223",
    "service:vehicle:body_repair": "yes",
    "service:vehicle:car_repair": "yes",
    "service:vehicle:diagnostics": "yes",
    "shop": "car",
    "website": "https://www.tesla.com/en_AU/findus/location/store/lasvegas3250"
  }
},
{
  "type": "node",
  "id": 3347774099,
  "lat": 58.8871812,
  "lon": 5.7031114,
  "tags": {
    "brand": "Tesla",
    "email": "stavanger@teslamotors.com",
    "name": "Tesla Stavanger",
    "phone": "+4751637710",
    "ref:teslastore": "stavanger",
    "service:vehicle:car_repair": "yes",
    "service:vehicle:new_car_sales": "yes",
    "shop": "car",
    "website": "https://www.tesla.com/no_NO/findus/location/store/stavanger"
  }
},
{
  "type": "node",
  "id": 3606812733,
  "lat": 52.0702643,
  "lon": 4.3907846,
  "tags": {
    "brand": "Tesla",
    "brand:wikidata": "Q478214",
    "name": "Tesla",
    "shop": "car"
  }
},
{
  "type": "node",
  "id": 3638036385,
  "lat": 51.5253127,
  "lon": -2.5946811,
  "tags": {
    "brand": "Tesla",
    "brand:wikidata": "Q478214",
    "brand:wikipedia": "en:Tesla, Inc.",
    "level": "1",
    "name": "Tesla",
    "shop": "car"
  }
},
{
  "type": "node",
  "id": 3640769995,
  "lat": 47.1915638,
  "lon": 8.4559100,
  "tags": {
    "addr:city": "Cham",
    "addr:housenumber": "12",
    "addr:postcode": "6330",
    "addr:street": "Lorzenparkstrasse",
    "brand": "Tesla",
    "name": "Tesla",
    "shop": "car",
    "toilets:wheelchair": "no",
    "wheelchair": "limited"
  }
},
{
  "type": "node",
  "id": 3661491464,
  "lat": 47.3719869,
  "lon": 8.5367932,
  "tags": {
    "addr:city": "Zürich",
    "addr:housenumber": "10",
    "addr:postcode": "8001",
    "addr:street": "Pelikanstrasse",
    "brand": "Tesla",
    "brand:wikidata": "Q478214",
    "brand:wikipedia": "en:Tesla, Inc.",
    "name": "Tesla",
    "shop": "car"
  }
},
{
  "type": "node",
  "id": 3661504952,
  "lat": 47.4963459,
  "lon": 8.6981499,
  "tags": {
    "addr:city": "Winterthur",
    "addr:housenumber": "19",
    "addr:postcode": "8406",
    "addr:street": "Schlachthofstrasse",
    "name": "Tesla",
    "shop": "car"
  }
},
{
  "type": "node",
  "id": 3665653458,
  "lat": 22.2749507,
  "lon": 114.1721401,
  "tags": {
    "addr:street": "皇后大道東 Queen's Road East",
    "brand": "特斯拉",
    "brand:en": "Tesla",
    "brand:wikidata": "Q478214",
    "brand:zh": "特斯拉",
    "name": "Tesla Motors",
    "name:en": "Tesla",
    "name:zh": "特斯拉",
    "shop": "car",
    "source": "Kaart Ground Survey 2017"
  }
},
{
  "type": "node",
  "id": 3787435551,
  "lat": 52.2041305,
  "lon": 0.1221088,
  "tags": {
    "addr:city": "Cambridge",
    "addr:country": "GB",
    "addr:housename": "SU27",
    "addr:housenumber": "33",
    "addr:postcode": "CB2 3BJ",
    "addr:street": "Grand Arcade",
    "brand": "Tesla",
    "brand:wikidata": "Q478214",
    "brand:wikipedia": "en:Tesla, Inc.",
    "clothes": "men",
    "level": "0",
    "name": "Tesla",
    "opening_hours": "Mo-Tu,Th-Fr 09:00-18:00; We 09:00-20:00; Sa 09:00-19:00; Su 11:00-17:00",
    "phone": "+44 1223 772111",
    "shop": "car",
    "website": "https://www.tesla.com/en_GB/findus/location/store/grandarcadecambridge"
  }
},
{
  "type": "node",
  "id": 3826969860,
  "lat": 45.4962311,
  "lon": -73.6588740,
  "tags": {
    "addr:city": "Montreal",
    "addr:housenumber": "5350",
    "addr:postcode": "H4P 1L9",
    "addr:street": "Ferrier Street",
    "name": "Tesla Montréal-Ferrier",
    "shop": "car",
    "source": "http://www.teslamotors.com/findus/location/service/montrealferrier",
    "website": "https://www.teslamotors.com/en_CA/?redirect=no"
  }
},
{
  "type": "node",
  "id": 4036847471,
  "lat": 41.8993345,
  "lon": -87.6266015,
  "tags": {
    "brand": "Tesla",
    "brand:wikidata": "Q478214",
    "brand:wikipedia": "en:Tesla, Inc.",
    "name": "Tesla",
    "shop": "car"
  }
},
{
  "type": "node",
  "id": 4071553697,
  "lat": 58.1779092,
  "lon": 8.1368093,
  "tags": {
    "brand": "Tesla",
    "name": "Tesla Kristiansand",
    "ref:teslastore": "kristiansandsorlandsparken",
    "service:vehicle:car_repair": "yes",
    "service:vehicle:new_car_sales": "yes",
    "shop": "car",
    "website": "https://www.tesla.com/no_NO/findus/location/store/kristiansandsorlandsparken"
  }
},
{
  "type": "node",
  "id": 4085600137,
  "lat": 41.2317311,
  "lon": -73.0520214,
  "tags": {
    "addr:city": "Milford",
    "addr:housenumber": "881",
    "addr:postcode": "06460",
    "addr:state": "CT",
    "addr:street": "Boston Post Road",
    "brand": "Tesla",
    "brand:wikidata": "Q478214",
    "brand:wikipedia": "en:Tesla, Inc.",
    "name": "Tesla",
    "shop": "car"
  }
},
{
  "type": "node",
  "id": 4161793490,
  "lat": 31.2205374,
  "lon": 121.4697760,
  "tags": {
    "brand": "特斯拉",
    "brand:en": "Tesla",
    "brand:wikidata": "Q478214",
    "brand:wikipedia": "en:Tesla, Inc.",
    "brand:zh": "特斯拉",
    "name": "Tesla",
    "name:en": "Tesla",
    "name:zh": "特斯拉",
    "shop": "car"
  }
},
{
  "type": "node",
  "id": 4324088276,
  "lat": 25.6527311,
  "lon": -100.3533595,
  "tags": {
    "name": "Tesla",
    "shop": "car"
  }
},
{
  "type": "node",
  "id": 4355988381,
  "lat": 50.1148571,
  "lon": 8.6739170,
  "tags": {
    "brand": "Tesla",
    "brand:wikidata": "Q478214",
    "brand:wikipedia": "en:Tesla, Inc.",
    "check_date:opening_hours": "2022-07-02",
    "name": "Tesla",
    "opening_hours": "Mo-Sa 10:00-19:00",
    "shop": "car",
    "wheelchair": "yes"
  }
},
{
  "type": "node",
  "id": 4486035558,
  "lat": 30.4031312,
  "lon": -97.7252545,
  "tags": {
    "brand": "Tesla",
    "brand:wikidata": "Q478214",
    "brand:wikipedia": "en:Tesla, Inc.",
    "name": "Tesla",
    "shop": "car",
    "wheelchair": "yes"
  }
},
{
  "type": "node",
  "id": 4525582714,
  "lat": 48.1574489,
  "lon": 16.3359137,
  "tags": {
    "addr:city": "Wien",
    "addr:country": "AT",
    "addr:housenumber": "17",
    "addr:postcode": "1230",
    "addr:street": "Gutheil-Schoder-Gasse",
    "brand": "Tesla",
    "brand:wikidata": "Q478214",
    "name": "Tesla Motors",
    "opening_hours": "Mo-Fr 09:00-18:00",
    "operator": "Tesla Motors Inc.",
    "service": "repair",
    "shop": "car"
  }
},
{
  "type": "node",
  "id": 4679827042,
  "lat": 59.9209586,
  "lon": 10.6873880,
  "tags": {
    "brand": "Tesla",
    "brand:wikidata": "Q478214",
    "brand:wikipedia": "en:Tesla, Inc.",
    "name": "Tesla Oslo Skøyen",
    "ref:teslastore": "osloskoyen",
    "service:vehicle:car_repair": "yes",
    "service:vehicle:new_car_sales": "yes",
    "shop": "car",
    "website": "https://www.tesla.com/no_NO/findus/location/store/osloskoyen"
  }
},
{
  "type": "node",
  "id": 4686322614,
  "lat": 34.6774280,
  "lon": 135.5000633,
  "tags": {
    "brand": "Tesla",
    "brand:wikidata": "Q478214",
    "brand:wikipedia": "en:Tesla, Inc.",
    "name": "Tesla",
    "name:ja": "TESLA",
    "shop": "car"
  }
},
{
  "type": "node",
  "id": 4842159059,
  "lat": 22.2962450,
  "lon": 114.2368082,
  "tags": {
    "addr:street": "高輝道 Ko Fai Road",
    "brand": "Tesla",
    "brand:wikidata": "Q478214",
    "brand:wikipedia": "en:Tesla, Inc.",
    "name": "Tesla",
    "shop": "car",
    "source": "Kaart Ground Survey 2017"
  }
},
{
  "type": "node",
  "id": 4925281044,
  "lat": 55.8387789,
  "lon": 37.6669371,
  "tags": {
    "brand": "Tesla",
    "contact:phone": "+7 495 7777126",
    "contact:website": "https://moscowteslaclub.ru",
    "name": "Moscow Tesla Club",
    "shop": "car"
  }
},
{
  "type": "node",
  "id": 4936237724,
  "lat": 38.8999727,
  "lon": -77.0242245,
  "tags": {
    "addr:city": "Washington",
    "addr:housenumber": "909",
    "addr:state": "DC",
    "addr:street": "H Street Northwest",
    "brand": "Tesla",
    "brand:wikidata": "Q478214",
    "brand:wikipedia": "en:Tesla, Inc.",
    "check_date": "2023-04-20",
    "name": "Tesla",
    "phone": "+1-202-737-0024",
    "shop": "car"
  }
},
{
  "type": "node",
  "id": 5018731154,
  "lat": 49.0091952,
  "lon": 8.4425266,
  "tags": {
    "addr:city": "Karlsruhe",
    "addr:country": "DE",
    "addr:housenumber": "23",
    "addr:postcode": "76131",
    "addr:street": "Heinrich-Wittmann-Straße",
    "addr:suburb": "Rintheim",
    "branch": "Karlsruhe Rintheim",
    "brand": "Tesla",
    "brand:wikidata": "Q478214",
    "check_date": "2023-07-08",
    "contact:email": "karlsruhe_sales@tesla.com",
    "contact:phone": "+49 721 96553049",
    "contact:website": "https://www.tesla.com/de_de/findus/location/store/karlsruhe",
    "level": "0",
    "name": "Tesla",
    "old_name": "OrangeBikeConcept",
    "opening_hours": "Mo-Fr 08:00-17:00; Sa,Su,PH off",
    "operator": "Tesla, Inc.",
    "shop": "car"
  }
},
{
  "type": "node",
  "id": 5031838064,
  "lat": 39.0414947,
  "lon": -94.5932433,
  "tags": {
    "brand": "Tesla",
    "brand:wikidata": "Q478214",
    "brand:wikipedia": "en:Tesla, Inc.",
    "name": "Tesla",
    "shop": "car"
  }
},
{
  "type": "node",
  "id": 5369193226,
  "lat": 34.0706824,
  "lon": -84.2751333,
  "tags": {
    "addr:city": "Alpharetta",
    "addr:country": "US",
    "addr:housenumber": "6165",
    "addr:postcode": "30004",
    "addr:state": "GA",
    "addr:street": "Avalon Boulevard",
    "brand": "Tesla",
    "brand:wikidata": "Q478214",
    "brand:wikipedia": "en:Tesla, Inc.",
    "entrance": "yes",
    "name": "Tesla",
    "shop": "car"
  }
},
{
  "type": "node",
  "id": 5390333647,
  "lat": 52.3927415,
  "lon": 13.5412752,
  "tags": {
    "addr:city": "Berlin",
    "addr:housenumber": "27",
    "addr:postcode": "12526",
    "addr:street": "Ludwig-Prandtl-Straße",
    "addr:suburb": "Bohnsdorf",
    "brand": "Tesla",
    "name": "Tesla Service Center Berlin",
    "opening_hours": "Mo-Fr 10:00-18:00; PH off; Sa 10:00-16:00",
    "operator": "Tesla GmbH",
    "phone": "+49 30 30808109",
    "second_hand": "yes",
    "shop": "car",
    "wheelchair": "yes"
  }
},
{
  "type": "node",
  "id": 5416608351,
  "lat": 46.5215411,
  "lon": 6.6267851,
  "tags": {
    "brand": "Tesla",
    "brand:wikidata": "Q478214",
    "brand:wikipedia": "en:Tesla, Inc.",
    "check_date:opening_hours": "2020-12-07",
    "name": "Tesla",
    "opening_hours": "Mo-Fr 09:30-18:30; Sa 09:30-18:00",
    "shop": "car"
  }
},
{
  "type": "node",
  "id": 5517994557,
  "lat": 51.1642999,
  "lon": 6.8527910,
  "tags": {
    "addr:city": "Düsseldorf",
    "addr:country": "DE",
    "addr:housenumber": "343-345",
    "addr:postcode": "40589",
    "addr:street": "Bonner Straße",
    "brand": "Tesla",
    "brand:wikidata": "Q478214",
    "brand:wikipedia": "en:Tesla, Inc.",
    "name": "Tesla Service Center",
    "opening_hours": "Mo-Fr 10:00-18:00; Sa 10:00-14:00; PH off",
    "opening_hours:workshop": "Mo-Fr 08:00-18:00; PH off",
    "operator": "Tesla",
    "phone": "+49 211 38789576",
    "service": "dealer;parts;repair;tyres",
    "shop": "car",
    "website": "https://www.tesla.com/de_DE/findus/location/service/dusseldorf"
  }
},
{
  "type": "node",
  "id": 5523001423,
  "lat": 19.4321311,
  "lon": -99.1995996,
  "tags": {
    "addr:street": "Avenida Presidente Masaryk",
    "brand": "Tesla",
    "brand:wikidata": "Q478214",
    "brand:wikipedia": "en:Tesla, Inc.",
    "name": "Tesla",
    "operator": "Tesla",
    "shop": "car"
  }
},
{
  "type": "node",
  "id": 5597565026,
  "lat": 34.1436670,
  "lon": -118.2572322,
  "tags": {
    "brand": "Tesla",
    "brand:wikidata": "Q478214",
    "brand:wikipedia": "en:Tesla, Inc.",
    "name": "Tesla",
    "shop": "car"
  }
},
{
  "type": "node",
  "id": 5639965103,
  "lat": 37.5458957,
  "lon": 127.2241577,
  "tags": {
    "brand": "Tesla",
    "brand:wikidata": "Q478214",
    "brand:wikipedia": "en:Tesla, Inc.",
    "name": "Tesla",
    "name:ja": "テスラ",
    "shop": "car"
  }
},
{
  "type": "node",
  "id": 5680524224,
  "lat": 47.2400174,
  "lon": -122.3777919,
  "tags": {
    "name": "Tesla",
    "shop": "car"
  }
},
{
  "type": "node",
  "id": 5698069921,
  "lat": -33.8674649,
  "lon": 151.2089356,
  "tags": {
    "brand": "Tesla",
    "brand:wikidata": "Q478214",
    "currency:AUD": "yes",
    "name": "Tesla",
    "shop": "car"
  }
},
{
  "type": "node",
  "id": 5835481590,
  "lat": 38.9317682,
  "lon": -77.2396681,
  "tags": {
    "addr:city": "Vienna",
    "addr:housenumber": "8500",
    "addr:postcode": "22182",
    "addr:street": "Tyco Road",
    "air_conditioning": "yes",
    "brand": "Tesla",
    "brand:wikidata": "Q478214",
    "brand:wikipedia": "en:Tesla, Inc.",
    "internet_access": "wlan",
    "internet_access:ssid": "Tesla Guest",
    "name": "Tesla",
    "phone": "(703) 761-4679",
    "shop": "car"
  }
},
{
  "type": "node",
  "id": 5935119760,
  "lat": 45.7620953,
  "lon": 4.8450609,
  "tags": {
    "brand": "Tesla",
    "brand:wikidata": "Q478214",
    "brand:wikipedia": "en:Tesla, Inc.",
    "name": "Tesla",
    "opening_hours": "Mo-Sa 10:00-18:00",
    "ref:FR:SIRET": "52433526200076",
    "shop": "car"
  }
},
{
  "type": "node",
  "id": 5993729706,
  "lat": 38.7338154,
  "lon": -9.1538114,
  "tags": {
    "name": "Tesla",
    "shop": "car"
  }
},
{
  "type": "node",
  "id": 6109533242,
  "lat": 43.6666144,
  "lon": 7.1264094,
  "tags": {
    "brand": "Tesla",
    "brand:wikidata": "Q478214",
    "brand:wikipedia": "en:Tesla, Inc.",
    "name": "Tesla",
    "shop": "car"
  }
},
{
  "type": "node",
  "id": 6128092895,
  "lat": 48.7815097,
  "lon": 2.2206295,
  "tags": {
    "brand": "Tesla",
    "brand:wikidata": "Q478214",
    "brand:wikipedia": "en:Tesla, Inc.",
    "level": "1",
    "name": "Tesla",
    "operator": "Tesla Motors",
    "payment:credit_cards": "yes",
    "second_hand": "yes",
    "shop": "car"
  }
},
{
  "type": "node",
  "id": 6197384219,
  "lat": 41.3953178,
  "lon": 2.1597647,
  "tags": {
    "addr:city": "Barcelona",
    "addr:country": "ES",
    "addr:housenumber": "257",
    "addr:postcode": "08008",
    "addr:street": "Carrer del Rosselló",
    "brand": "Tesla",
    "brand:wikidata": "Q478214",
    "brand:wikipedia": "en:Tesla, Inc.",
    "email": "barcelona_sales@tesla.com",
    "name": "Tesla",
    "opening_hours": "Mo-Sa 10:00-20:00",
    "phone": "+34 932 201 427",
    "service:vehicle:new_car_sales": "yes",
    "shop": "car",
    "website": "https://www.tesla.com/findus?v=2&bounds=41.39742643324937%2C2.1660685556030357%2C41.39361150418026%2C2.1550822274780357&zoom=18&filters=store&location=barcelonapasseigdegracia"
  }
},
{
  "type": "node",
  "id": 6323375960,
  "lat": 43.6126460,
  "lon": -79.5576714,
  "tags": {
    "addr:housenumber": "25",
    "addr:street": "The West Mall",
    "brand": "Tesla",
    "brand:wikidata": "Q478214",
    "brand:wikipedia": "en:Tesla, Inc.",
    "level": "0",
    "name": "Tesla",
    "shop": "car"
  }
},
{
  "type": "node",
  "id": 6342531785,
  "lat": -37.8321290,
  "lon": 144.9955929,
  "tags": {
    "addr:housenumber": "650",
    "addr:postcode": "3121",
    "addr:state": "VIC",
    "addr:street": "Church Street",
    "addr:suburb": "Richmond",
    "addr:unit": "4",
    "branch": "Richmond",
    "brand": "Tesla",
    "brand:wikidata": "Q478214",
    "brand:wikipedia": "en:Tesla, Inc.",
    "name": "Tesla",
    "opening_hours": "Mo-Fr 08:00-17:00",
    "phone": "+61 3 9039 6000",
    "shop": "car",
    "website": "https://www.teslamotors.com/en_AU/findus/location/service/melbourne"
  }
},
{
  "type": "node",
  "id": 6356909870,
  "lat": 49.2678133,
  "lon": -123.1410950,
  "tags": {
    "addr:city": "Vancouver",
    "addr:province": "BC",
    "brand": "Tesla",
    "brand:wikidata": "Q478214",
    "brand:wikipedia": "en:Tesla, Inc.",
    "check_date": "2023-05-06",
    "name": "Tesla",
    "shop": "car"
  }
},
{
  "type": "node",
  "id": 6363176226,
  "lat": 25.9582572,
  "lon": -80.1423803,
  "tags": {
    "addr:city": "Aventura",
    "addr:housenumber": "19565",
    "addr:postcode": "33180",
    "addr:state": "FL",
    "addr:street": "Biscayne Boulevard",
    "brand": "Tesla",
    "brand:wikidata": "Q478214",
    "brand:wikipedia": "en:Tesla, Inc.",
    "name": "Tesla",
    "phone": "+1 305 914 3072",
    "shop": "car",
    "website": "https://aventuramall.com/shops/tesla/?location=UL1948"
  }
},
{
  "type": "node",
  "id": 6553222084,
  "lat": 51.5766222,
  "lon": -0.2237765,
  "tags": {
    "brand": "Tesla",
    "brand:wikidata": "Q478214",
    "brand:wikipedia": "en:Tesla, Inc.",
    "level": "0",
    "name": "Tesla",
    "shop": "car"
  }
},
{
  "type": "node",
  "id": 6555144241,
  "lat": 51.5069976,
  "lon": -0.2215514,
  "tags": {
    "brand": "Tesla",
    "brand:wikidata": "Q478214",
    "brand:wikipedia": "en:Tesla, Inc.",
    "check_date:opening_hours": "2023-06-18",
    "level": "0",
    "name": "Tesla",
    "opening_hours:signed": "no",
    "shop": "car",
    "wheelchair": "yes"
  }
},
{
  "type": "node",
  "id": 6593968046,
  "lat": 31.2078998,
  "lon": 121.4021661,
  "tags": {
    "brand": "特斯拉",
    "brand:en": "Tesla",
    "brand:wikidata": "Q478214",
    "brand:wikipedia": "en:Tesla, Inc.",
    "brand:zh": "特斯拉",
    "name": "Tesla",
    "name:en": "Tesla",
    "name:zh": "特斯拉",
    "shop": "car"
  }
},
{
  "type": "node",
  "id": 6612581329,
  "lat": -27.4514831,
  "lon": 153.0406897,
  "tags": {
    "brand": "Tesla",
    "brand:wikidata": "Q478214",
    "brand:wikipedia": "en:Tesla, Inc.",
    "name": "Tesla",
    "opening_hours": "Mo-We, Fr 09:00-17:30; Th 09:00-20:00; Sa 09:00-17:00",
    "sales": "yes",
    "service:vehicle:car_repair": "yes",
    "shop": "car"
  }
},
{
  "type": "node",
  "id": 6618563922,
  "lat": 40.0884138,
  "lon": -75.3909259,
  "tags": {
    "brand": "Tesla",
    "brand:wikidata": "Q478214",
    "brand:wikipedia": "en:Tesla, Inc.",
    "indoor": "room",
    "level": "0",
    "name": "Tesla",
    "shop": "car"
  }
},
{
  "type": "node",
  "id": 6720742069,
  "lat": 47.4782193,
  "lon": 19.0679638,
  "tags": {
    "brand": "Tesla",
    "brand:wikidata": "Q478214",
    "name": "Tesla Universal",
    "second_hand": "no",
    "shop": "car",
    "wheelchair": "yes"
  }
},
{
  "type": "node",
  "id": 6728409543,
  "lat": 26.2140146,
  "lon": -81.8025807,
  "tags": {
    "brand": "Tesla",
    "brand:wikidata": "Q478214",
    "brand:wikipedia": "en:Tesla, Inc.",
    "name": "Tesla",
    "shop": "car"
  }
},
{
  "type": "node",
  "id": 6804672666,
  "lat": -36.8587294,
  "lon": 174.7538168,
  "tags": {
    "addr:city": "Auckland",
    "addr:housenumber": "501",
    "addr:postcode": "1011",
    "addr:street": "Karangahape Road",
    "branch": "Auckland",
    "brand": "Tesla",
    "brand:wikidata": "Q478214",
    "brand:wikipedia": "en:Tesla, Inc.",
    "name": "Tesla",
    "operator": "Tesla",
    "phone": "+64 9 801 0039",
    "second_hand": "no",
    "service:vehicle:car_repair": "yes",
    "service:vehicle:new_car_sales": "yes",
    "shop": "car",
    "website": "https://www.tesla.com/"
  }
},
{
  "type": "node",
  "id": 6853228602,
  "lat": 50.1068561,
  "lon": 14.5029134,
  "tags": {
    "addr:city": "Praha",
    "addr:housenumber": "980/10",
    "addr:postcode": "19000",
    "addr:street": "Freyova",
    "brand": "Tesla",
    "brand:wikidata": "Q478214",
    "brand:wikipedia": "en:Tesla, Inc.",
    "name": "Tesla",
    "shop": "car"
  }
},
{
  "type": "node",
  "id": 6856735271,
  "lat": 47.4148483,
  "lon": 9.3404352,
  "tags": {
    "addr:housenumber": "160",
    "addr:street": "Zürcher Strasse",
    "brand": "Tesla",
    "brand:wikidata": "Q478214",
    "name": "Tesla St. Gallen",
    "shop": "car"
  }
},
{
  "type": "node",
  "id": 6864976551,
  "lat": 59.3692654,
  "lon": 18.0052401,
  "tags": {
    "brand": "Tesla",
    "brand:wikidata": "Q478214",
    "brand:wikipedia": "en:Tesla, Inc.",
    "check_date": "2022-08",
    "level": "1",
    "name": "Tesla",
    "opening_hours": "Mo-Su 10:00-21:00",
    "shop": "car"
  }
},
{
  "type": "node",
  "id": 6867300897,
  "lat": 41.7337555,
  "lon": -71.4810045,
  "tags": {
    "brand": "Tesla",
    "brand:wikidata": "Q478214",
    "brand:wikipedia": "en:Tesla, Inc.",
    "name": "Tesla",
    "shop": "car"
  }
},
{
  "type": "node",
  "id": 6943630043,
  "lat": 46.9590084,
  "lon": 7.4723017,
  "tags": {
    "brand": "Tesla",
    "brand:wikidata": "Q478214",
    "brand:wikipedia": "en:Tesla, Inc.",
    "contact:phone": "+41 31 528 09 26",
    "contact:website": "https://www.tesla.com/de_CH/findus/location/store/bern-zentweg",
    "name": "Tesla",
    "opening_hours": "Mo-Fr 09:00-18:00; Sa 11:00-17:00; PH off",
    "shop": "car"
  }
},
{
  "type": "node",
  "id": 6954499768,
  "lat": 40.7410956,
  "lon": -74.0075055,
  "tags": {
    "addr:city": "New York",
    "addr:housenumber": "860",
    "addr:postcode": "10014",
    "addr:state": "NY",
    "addr:street": "Washington Street",
    "brand": "Tesla",
    "brand:wikidata": "Q478214",
    "brand:wikipedia": "en:Tesla, Inc.",
    "name": "Tesla",
    "opening_hours": "Mo-Sa 11:00-20:00, Su 11:00-19:00",
    "operator": "Tesla, Inc",
    "second_hand": "no",
    "service:vehicle:new_car_sales": "yes",
    "shop": "car"
  }
},
{
  "type": "node",
  "id": 6966482622,
  "lat": 30.1641978,
  "lon": -95.4645373,
  "tags": {
    "addr:city": "The Woodlands",
    "addr:housenumber": "9595",
    "addr:postcode": "77380",
    "addr:state": "TX",
    "addr:street": "Six Pines Drive",
    "addr:unit": "1040",
    "brand": "Tesla",
    "brand:wikidata": "Q478214",
    "brand:wikipedia": "en:Tesla, Inc.",
    "name": "Tesla",
    "opening_hours": "Su 12:00-18:00; Mo-Sa10:00-21:00",
    "shop": "car"
  }
},
{
  "type": "node",
  "id": 6993018365,
  "lat": 48.8698769,
  "lon": 2.3230838,
  "tags": {
    "brand": "Tesla",
    "brand:wikidata": "Q478214",
    "brand:wikipedia": "en:Tesla, Inc.",
    "name": "Tesla",
    "shop": "car"
  }
},
{
  "type": "node",
  "id": 7098793585,
  "lat": 38.9177221,
  "lon": -77.2214474,
  "tags": {
    "addr:city": "McLean",
    "addr:housenumber": "1961",
    "addr:postcode": "22102",
    "addr:state": "VA",
    "addr:street": "Chain Bridge Road",
    "brand": "Tesla",
    "brand:wikidata": "Q478214",
    "brand:wikipedia": "en:Tesla, Inc.",
    "name": "Tesla",
    "note": "Showroom inside Tysons Corner Center: located on the Second Level near Nordstrom and AMC",
    "shop": "car"
  }
},
{
  "type": "node",
  "id": 7098793586,
  "lat": 39.0238745,
  "lon": -77.1453344,
  "tags": {
    "addr:city": "Bethesda",
    "addr:housenumber": "7101",
    "addr:postcode": "20817",
    "addr:state": "MD",
    "addr:street": "Democracy Boulevard",
    "addr:unit": "Suite 1272",
    "brand": "Tesla",
    "brand:wikidata": "Q478214",
    "brand:wikipedia": "en:Tesla, Inc.",
    "name": "Tesla",
    "note": "Located in Westfield Montgomery Mall: Our showroom is located on the First Level near Lululemon and Vineyard Vines.",
    "shop": "car"
  }
},
{
  "type": "node",
  "id": 7107642591,
  "lat": 25.2018960,
  "lon": 55.2677878,
  "tags": {
    "brand": "Tesla",
    "brand:ar": "تسلا",
    "brand:azb": "تسلا",
    "brand:de": "Tesla",
    "brand:fr": "Tesla",
    "brand:pa": "ਟੇਸਲਾ",
    "brand:ur": "ٹیسلا",
    "brand:wikidata": "Q478214",
    "email": "Dubai_sales@tesla.com",
    "name": "Tesla",
    "name:ar": "تسلا",
    "name:azb": "تسلا",
    "name:de": "Tesla",
    "name:fr": "Tesla",
    "name:pa": "ਟੇਸਲਾ",
    "name:ur": "ٹیسلا",
    "opening_hours": "Sa-Th 11:00-18:00",
    "phone": "+971045217777",
    "shop": "car",
    "website": "https://www.tesla.com/findus/location/store/dubaisheikhzayedroad"
  }
},
{
  "type": "node",
  "id": 7157924862,
  "lat": 32.7105743,
  "lon": -97.3993166,
  "tags": {
    "addr:city": "Fort Worth",
    "addr:housenumber": "5154",
    "addr:postcode": "76109",
    "addr:state": "TX",
    "addr:street": "Monahans Avenue",
    "brand": "Tesla",
    "brand:wikidata": "Q478214",
    "brand:wikipedia": "en:Tesla, Inc.",
    "contact:phone": "+1 682 707 4951",
    "contact:website": "https://www.tesla.com/",
    "name": "Tesla",
    "opening_hours": "Su 12:00-18:00; Mo-Th 10:00-19:00; Fr-Sa 10:00-20:00",
    "payment:cash": "yes",
    "payment:telephone_cards": "yes",
    "second_hand": "no",
    "service:vehicle:car_repair": "no",
    "service:vehicle:diagnostics": "no",
    "service:vehicle:oil_change": "no",
    "service:vehicle:tyres": "no",
    "service:vehicle:used_car_sales": "no",
    "shop": "car",
    "wheelchair": "limited"
  }
},
{
  "type": "node",
  "id": 7207622514,
  "lat": 47.4010252,
  "lon": 8.4396477,
  "tags": {
    "addr:city": "Schlieren",
    "addr:housenumber": "51-55",
    "addr:postcode": "8952",
    "addr:street": "Brandstrasse",
    "brand": "Tesla",
    "brand:wikidata": "Q478214",
    "name": "Tesla",
    "opening_hours": "Mo-Fr 09:00-18:00, Sa 11:00-17:00",
    "shop": "car"
  }
},
{
  "type": "node",
  "id": 7213233197,
  "lat": 41.7269551,
  "lon": -71.4813101,
  "tags": {
    "name": "Tesla",
    "shop": "car"
  }
},
{
  "type": "node",
  "id": 7258919502,
  "lat": 55.3534069,
  "lon": 8.7788754,
  "tags": {
    "branch": "Ribe N",
    "brand": "Tesla",
    "brand:wikidata": "Q478214",
    "name": "Tesla",
    "opening_date": "2022-06-01",
    "shop": "car",
    "source": "https://penta.dk/vaerd-at-vide/penta-advokater-har-bistaaet-wind-ejendomsselskab-ribe-aps-med-udlejningen-til-tesla-motors-denmark-i-ribe/",
    "source:opening_date": "https://teslaownersdenmark.dk/menu/news/news_id/38",
    "website": "https://www.tesla.com/da_DK/"
  }
},
{
  "type": "node",
  "id": 7286990067,
  "lat": 38.1355040,
  "lon": -122.2202990,
  "tags": {
    "addr:city": "Vallejo",
    "addr:housenumber": "1001",
    "addr:postcode": "94591",
    "addr:state": "CA",
    "addr:street": "Admiral Callaghan Lane",
    "brand": "Tesla",
    "brand:wikidata": "Q478214",
    "brand:wikipedia": "en:Tesla, Inc.",
    "email": "vallejo_ordersupport@tesla.com",
    "landuse": "commercial",
    "name": "Tesla",
    "phone": "(707) 917-4719",
    "shop": "car"
  }
},
{
  "type": "node",
  "id": 7289856045,
  "lat": 33.5029322,
  "lon": -111.9292358,
  "tags": {
    "brand": "Tesla",
    "brand:wikidata": "Q478214",
    "brand:wikipedia": "en:Tesla, Inc.",
    "name": "Tesla Scottsdale Fashion Square",
    "shop": "car"
  }
},
{
  "type": "node",
  "id": 7366723238,
  "lat": 31.1947099,
  "lon": 121.3101732,
  "tags": {
    "brand": "特斯拉",
    "brand:en": "Tesla",
    "brand:wikidata": "Q478214",
    "brand:wikipedia": "en:Tesla, Inc.",
    "brand:zh": "特斯拉",
    "name": "Tesla",
    "name:en": "Tesla",
    "name:zh": "特斯拉",
    "shop": "car"
  }
},
{
  "type": "node",
  "id": 7535642213,
  "lat": 42.3482550,
  "lon": -71.0828637,
  "tags": {
    "addr:city": "Boston",
    "addr:housenumber": "888",
    "addr:postcode": "02116",
    "addr:state": "MA",
    "addr:street": "Boylston Street",
    "addr:unit": "Suite 055",
    "air_conditioning": "yes",
    "brand": "Tesla",
    "brand:wikidata": "Q478214",
    "brand:wikipedia": "en:Tesla, Inc.",
    "contact:twitter": "https://twitter.com/Tesla",
    "currency:USD": "yes",
    "email": "boston_ordersupport@tesla.com",
    "internet_access": "yes",
    "level": "0",
    "name": "Tesla",
    "opening_hours": "Mo-Sa 10:00-21:00; Su 11:00-20:00",
    "operator": "Tesla, Inc.",
    "payment:mobile_app": "yes",
    "phone": "+1-617-476-4003",
    "second_hand": "no",
    "service:vehicle:new_car_sales": "yes",
    "service:vehicle:showroom": "yes",
    "service:vehicle:test_drives": "yes",
    "shop": "car",
    "stroller": "yes",
    "website": "https://www.tesla.com/findus/location/store/bostonboylstonstreet",
    "wheelchair": "yes"
  }
},
{
  "type": "node",
  "id": 7568020869,
  "lat": 49.3253765,
  "lon": -123.1418330,
  "tags": {
    "brand": "Tesla",
    "brand:wikidata": "Q478214",
    "brand:wikipedia": "en:Tesla, Inc.",
    "name": "Tesla",
    "shop": "car"
  }
},
{
  "type": "node",
  "id": 7575101281,
  "lat": 39.0888800,
  "lon": 117.2078372,
  "tags": {
    "brand": "特斯拉",
    "brand:en": "Tesla",
    "brand:wikidata": "Q478214",
    "brand:wikipedia": "en:Tesla, Inc.",
    "brand:zh": "特斯拉",
    "name": "Tesla",
    "name:en": "Tesla",
    "name:zh": "特斯拉",
    "shop": "car"
  }
},
{
  "type": "node",
  "id": 7684331657,
  "lat": 59.7302841,
  "lon": 10.2207076,
  "tags": {
    "brand": "Tesla",
    "brand:wikidata": "Q478214",
    "brand:wikipedia": "en:Tesla, Inc.",
    "name": "Tesla",
    "ref:teslastore": "drammen",
    "service:vehicle:car_repair": "yes",
    "shop": "car",
    "website": "https://www.tesla.com/no_NO/findus/location/store/drammen"
  }
},
{
  "type": "node",
  "id": 7684331658,
  "lat": 62.7388916,
  "lon": 7.1995805,
  "tags": {
    "brand": "Tesla",
    "name": "Tesla Molde",
    "ref:teslastore": "molde",
    "service:vehicle:new_car_sales": "yes",
    "shop": "car",
    "website": "https://www.tesla.com/no_NO/findus/location/store/molde"
  }
},
{
  "type": "node",
  "id": 7684331659,
  "lat": 59.3810566,
  "lon": 5.3062588,
  "tags": {
    "brand": "Tesla",
    "name": "Tesla Haugesund",
    "ref:teslastore": "haugesund",
    "service:vehicle:car_repair": "yes",
    "service:vehicle:new_car_sales": "yes",
    "shop": "car",
    "website": "https://www.tesla.com/no_NO/findus/location/store/haugesund"
  }
},
{
  "type": "node",
  "id": 7684331660,
  "lat": 60.8717668,
  "lon": 10.9476832,
  "tags": {
    "brand": "Tesla",
    "name": "Tesla Brumunddal",
    "ref:teslastore": "brumunddalstrandvegen",
    "service:vehicle:car_repair": "yes",
    "service:vehicle:new_car_sales": "yes",
    "shop": "car",
    "website": "https://www.tesla.com/no_NO/findus/location/store/brumunddalstrandvegen"
  }
},
{
  "type": "node",
  "id": 7684331661,
  "lat": 62.4920963,
  "lon": 6.6064180,
  "tags": {
    "brand": "Tesla",
    "brand:wikidata": "Q478214",
    "brand:wikipedia": "en:Tesla, Inc.",
    "name": "Tesla Ålesund",
    "ref:teslastore": "alesundskodje",
    "service:vehicle:car_repair": "yes",
    "service:vehicle:new_car_sales": "yes",
    "shop": "car",
    "website": "https://www.tesla.com/no_NO/findus/location/store/alesundskodje"
  }
},
{
  "type": "node",
  "id": 7684331662,
  "lat": 60.2940602,
  "lon": 5.2529449,
  "tags": {
    "brand": "Tesla",
    "brand:wikidata": "Q478214",
    "name": "Tesla Bergen Kokstad",
    "ref:teslastore": "bergenkokstad",
    "service:vehicle:car_repair": "yes",
    "service:vehicle:new_car_sales": "yes",
    "shop": "car",
    "website": "https://www.tesla.com/no_NO/findus/location/store/bergenkokstad"
  }
},
{
  "type": "node",
  "id": 7684331663,
  "lat": 69.6755697,
  "lon": 18.9200813,
  "tags": {
    "brand": "Tesla",
    "brand:wikidata": "Q478214",
    "name": "Tesla Tromsø",
    "ref:teslastore": "tromso",
    "service:vehicle:new_car_sales": "yes",
    "shop": "car",
    "website": "https://www.tesla.com/no_NO/findus/location/store/tromso"
  }
},
{
  "type": "node",
  "id": 7684331666,
  "lat": 60.4716569,
  "lon": 5.3367168,
  "tags": {
    "brand": "Tesla",
    "brand:wikidata": "Q478214",
    "name": "Tesla Bergen Åsane",
    "ref:teslastore": "bergenasane",
    "service:vehicle:car_repair": "yes",
    "service:vehicle:new_car_sales": "yes",
    "shop": "car",
    "website": "https://www.tesla.com/no_NO/findus/location/store/bergenasane"
  }
},
{
  "type": "node",
  "id": 7684331667,
  "lat": 59.9070392,
  "lon": 10.4994031,
  "tags": {
    "brand": "Tesla",
    "name": "Tesla Bærum",
    "ref:teslastore": "oslobaerum",
    "service:vehicle:car_repair": "yes",
    "service:vehicle:new_car_sales": "yes",
    "shop": "car",
    "website": "https://www.tesla.com/no_NO/findus/location/store/oslobaerum"
  }
},
{
  "type": "node",
  "id": 7684331668,
  "lat": 59.9528622,
  "lon": 10.8880034,
  "tags": {
    "brand": "Tesla",
    "brand:wikidata": "Q478214",
    "name": "Tesla Oslo Nord",
    "ref:teslastore": "oslonorth",
    "service:vehicle:car_repair": "yes",
    "service:vehicle:new_car_sales": "yes",
    "shop": "car",
    "website": "https://www.tesla.com/no_NO/findus/location/store/oslonorth"
  }
},
{
  "type": "node",
  "id": 7701830062,
  "lat": 48.6196577,
  "lon": 7.7291032,
  "tags": {
    "addr:city": "Hœnheim",
    "addr:housenumber": "3",
    "addr:postcode": "67800",
    "addr:street": "Rue Émile Mathis",
    "brand": "Tesla",
    "brand:wikidata": "Q478214",
    "name": "Tesla Center Strasbourg",
    "phone": "+33 3 69 24 65 17",
    "shop": "car"
  }
},
{
  "type": "node",
  "id": 7796265161,
  "lat": 39.9685600,
  "lon": 116.4848709,
  "tags": {
    "brand": "特斯拉",
    "brand:en": "Tesla",
    "brand:wikidata": "Q478214",
    "brand:wikipedia": "en:Tesla, Inc.",
    "brand:zh": "特斯拉",
    "name": "Tesla",
    "name:en": "Tesla",
    "name:zh": "特斯拉",
    "shop": "car"
  }
},
{
  "type": "node",
  "id": 7797617191,
  "lat": 35.8632143,
  "lon": -78.7154442,
  "tags": {
    "brand": "Tesla",
    "brand:wikidata": "Q478214",
    "brand:wikipedia": "en:Tesla, Inc.",
    "name": "Tesla",
    "shop": "car"
  }
},
{
  "type": "node",
  "id": 7924243667,
  "lat": 51.2080378,
  "lon": 6.6994286,
  "tags": {
    "brand": "Tesla",
    "name": "Tesla Delivery Center Neuss",
    "second_hand": "no",
    "shop": "car",
    "wheelchair": "no"
  }
},
{
  "type": "node",
  "id": 8062993226,
  "lat": 25.8139581,
  "lon": -80.1932750,
  "tags": {
    "addr:city": "Miami",
    "addr:housenumber": "4039",
    "addr:postcode": "33137",
    "addr:state": "FL",
    "addr:street": "Northeast 1st Avenue",
    "brand": "Tesla",
    "brand:wikidata": "Q478214",
    "brand:wikipedia": "en:Tesla, Inc.",
    "name": "Tesla",
    "phone": "(305) 459 8658",
    "shop": "car",
    "website": "https://www.tesla.com/"
  }
},
{
  "type": "node",
  "id": 8173312282,
  "lat": 52.3924878,
  "lon": 13.5415260,
  "tags": {
    "addr:city": "Berlin",
    "addr:housenumber": "29",
    "addr:postcode": "12526",
    "addr:street": "Ludwig-Prandtl-Straße",
    "addr:suburb": "Bohnsdorf",
    "brand": "Tesla",
    "brand:wikidata": "Q478214",
    "brand:wikipedia": "en:Tesla, Inc.",
    "name": "Tesla Store Berlin",
    "opening_hours": "Mo-Fr 10:00-18:00; PH off; Sa 10:00-16:00",
    "operator": "Tesla GmbH",
    "phone": "+49 30 30808109",
    "second_hand": "yes",
    "shop": "car",
    "wheelchair": "yes"
  }
},
{
  "type": "node",
  "id": 8196605206,
  "lat": 50.1330424,
  "lon": 8.7655799,
  "tags": {
    "brand": "Tesla",
    "brand:wikidata": "Q478214",
    "brand:wikipedia": "en:Tesla, Inc.",
    "name": "Tesla",
    "operator": "Tesla",
    "shop": "car"
  }
},
{
  "type": "node",
  "id": 8303788521,
  "lat": 52.3017778,
  "lon": 21.0885743,
  "tags": {
    "brand": "Tesla",
    "brand:wikidata": "Q478214",
    "name": "Tesla Warszawa-Radzymińska",
    "opening_hours": "Mo-Fr 10:00-18:00; Sa 10:00-16:00",
    "shop": "car",
    "wheelchair": "yes"
  }
},
{
  "type": "node",
  "id": 8375934462,
  "lat": 50.9654880,
  "lon": 7.0145822,
  "tags": {
    "addr:city": "Köln",
    "addr:housenumber": "20",
    "addr:postcode": "51063",
    "addr:street": "Schanzenstraße",
    "brand": "Tesla",
    "brand:wikidata": "Q478214",
    "brand:wikipedia": "en:Tesla, Inc.",
    "name": "Tesla",
    "opening_hours": "Mo-Sa 10:00-18:00",
    "operator": "Tesla",
    "phone": "+49 221 65088982",
    "service:vehicle:car_repair": "yes",
    "service:vehicle:new_car_sales": "yes",
    "shop": "car",
    "website": "https://www.tesla.com/de_DE/findus/location/store/colognecarlswerk"
  }
},
{
  "type": "node",
  "id": 8404869339,
  "lat": 9.0797144,
  "lon": 76.5312928,
  "tags": {
    "brand": "Tesla",
    "brand:wikidata": "Q478214",
    "brand:wikipedia": "en:Tesla, Inc.",
    "name": "Tesla accessories",
    "shop": "car"
  }
},
{
  "type": "node",
  "id": 8409929538,
  "lat": 55.7413042,
  "lon": 37.5265892,
  "tags": {
    "brand": "Tesla",
    "check_date": "2023-01-20",
    "contact:phone": "+7 495 7777126",
    "contact:website": "https://moscowteslaclub.ru/",
    "name": "Moscow Tesla Club",
    "opening_hours": "Mo-Fr 10:00-20:00; Sa,Su 11:00-18:00",
    "shop": "car"
  }
},
{
  "type": "node",
  "id": 8441808085,
  "lat": 20.8089521,
  "lon": -102.7769367,
  "tags": {
    "brand": "Tesla",
    "brand:wikidata": "Q478214",
    "brand:wikipedia": "en:Tesla, Inc.",
    "name": "Tesla",
    "shop": "car"
  }
},
{
  "type": "node",
  "id": 8551734329,
  "lat": -37.8851289,
  "lon": 145.0827209,
  "tags": {
    "brand": "Tesla",
    "brand:wikidata": "Q478214",
    "brand:wikipedia": "en:Tesla, Inc.",
    "level": "0",
    "name": "Tesla",
    "second_hand": "no",
    "shop": "car",
    "wheelchair": "yes"
  }
},
{
  "type": "node",
  "id": 8559295736,
  "lat": 48.1486764,
  "lon": 16.3351589,
  "tags": {
    "addr:city": "Wien",
    "addr:housenumber": "207",
    "addr:street": "Triester Straße",
    "brand": "Tesla",
    "brand:wikidata": "Q478214",
    "brand:wikipedia": "en:Tesla, Inc.",
    "name": "Tesla Delivery Center",
    "shop": "car",
    "website": "https://www.tesla.com"
  }
},
{
  "type": "node",
  "id": 8576731279,
  "lat": 44.8797656,
  "lon": -93.3993766,
  "tags": {
    "addr:city": "Edina",
    "addr:housenumber": "6801",
    "addr:postcode": "55439",
    "addr:state": "MN",
    "addr:street": "Washington Avenue South",
    "addr:unit": "Suite 110",
    "brand": "Tesla",
    "brand:wikidata": "Q478214",
    "brand:wikipedia": "en:Tesla, Inc.",
    "name": "Tesla",
    "shop": "car"
  }
},
{
  "type": "node",
  "id": 8597546154,
  "lat": 22.3833099,
  "lon": 114.2058491,
  "tags": {
    "addr:street": "沙田源順圍2號",
    "brand": "特斯拉",
    "brand:en": "Tesla",
    "brand:wikidata": "Q478214",
    "brand:wikipedia": "zh:特斯拉 (公司)",
    "brand:zh": "特斯拉",
    "name": "沙田 Tesla 體驗中心",
    "name:en": "Tesla Service Centre",
    "name:zh": "特斯拉",
    "phone": "3974-0254",
    "shop": "car"
  }
},
{
  "type": "node",
  "id": 8619013920,
  "lat": 37.6439214,
  "lon": -77.5642558,
  "tags": {
    "addr:housenumber": "9850",
    "addr:street": "W. Broad Street",
    "brand": "Tesla",
    "brand:wikidata": "Q478214",
    "brand:wikipedia": "en:Tesla, Inc.",
    "contact:phone": "+1 804 219 4999",
    "name": "Tesla",
    "opening_hours": "Mo-Sa 10:00-18:00; Su 12:00-17:00",
    "shop": "car",
    "website": "https://www.tesla.com/findus/location/store/richmondglenallen"
  }
},
{
  "type": "node",
  "id": 8672359902,
  "lat": 43.5793099,
  "lon": -116.2673410,
  "tags": {
    "addr:city": "Boise",
    "addr:housenumber": "2592",
    "addr:postcode": "83709",
    "addr:state": "ID",
    "addr:street": "South Beverly Street",
    "addr:unit": "126",
    "brand": "Tesla",
    "brand:wikidata": "Q478214",
    "brand:wikipedia": "en:Tesla, Inc.",
    "name": "Tesla",
    "shop": "car"
  }
},
{
  "type": "node",
  "id": 8754827887,
  "lat": 22.3239348,
  "lon": 114.2038103,
  "tags": {
    "brand": "Tesla",
    "brand:wikidata": "Q478214",
    "brand:wikipedia": "en:Tesla, Inc.",
    "name": "Tesla",
    "shop": "car"
  }
},
{
  "type": "node",
  "id": 8783828581,
  "lat": 29.9807350,
  "lon": -95.4214028,
  "tags": {
    "addr:city": "Houston",
    "addr:housenumber": "14820",
    "addr:postcode": "77090",
    "addr:state": "TX",
    "addr:street": "North Freeway",
    "brand": "Tesla",
    "brand:wikidata": "Q478214",
    "brand:wikipedia": "en:Tesla, Inc.",
    "check_date": "2022-08-16",
    "name": "Tesla Gallery & Service Center",
    "opening_hours": "Mo-Fr 09:00-18:00",
    "operator": "Tesla Motors",
    "phone": "+1 281 982-7130",
    "shop": "car",
    "website": "https://www.tesla.com/findus/location/supercharger/northhouston"
  }
},
{
  "type": "node",
  "id": 8783874833,
  "lat": 29.7363573,
  "lon": -95.5375991,
  "tags": {
    "addr:city": "Houston",
    "addr:housenumber": "9633",
    "addr:postcode": "77063",
    "addr:state": "TX",
    "addr:street": "Westheimer Road",
    "brand": "Tesla",
    "brand:wikidata": "Q478214",
    "brand:wikipedia": "en:Tesla, Inc.",
    "name": "Tesla Gallery & Service Center",
    "opening_hours": "Mo-Sa 10:00-18:00, Su 12:00-18:00",
    "operator": "Tesla Motors",
    "phone": "+1-713-821-2700",
    "shop": "car",
    "website": "https://www.tesla.com/findus/location/service/houwestchasewest"
  }
},
{
  "type": "node",
  "id": 8834278282,
  "lat": 54.1425645,
  "lon": 12.1685120,
  "tags": {
    "addr:city": "Rostock",
    "addr:country": "DE",
    "addr:housenumber": "8",
    "addr:street": "Hanseatenstraße",
    "name": "Tesla-Center",
    "shop": "car"
  }
},
{
  "type": "node",
  "id": 8889877250,
  "lat": -31.9140432,
  "lon": 115.8277464,
  "tags": {
    "addr:housenumber": "247",
    "addr:postcode": "6017",
    "addr:state": "WA",
    "addr:street": "Scarborough Beach Road",
    "addr:suburb": "Osborne Park",
    "brand": "Tesla",
    "brand:wikidata": "Q478214",
    "brand:wikipedia": "en:Tesla, Inc.",
    "name": "Tesla Perth",
    "opening_hours": "Mo-Fr 09:00-17:00  Sa 09:00-13:00   Sun - closed",
    "phone": "+61865557020",
    "second_hand": "yes",
    "shop": "car",
    "website": "https://www.tesla.com/en_au/"
  }
},
{
  "type": "node",
  "id": 8936351916,
  "lat": 45.5035000,
  "lon": -73.3748735,
  "tags": {
    "addr:city": "Saint-Bruno-de-Montarville",
    "addr:housenumber": "1",
    "addr:postcode": "J3V 5J8",
    "addr:province": "Québec",
    "addr:street": "Boulevard des Promenades",
    "brand": "Tesla",
    "brand:wikidata": "Q478214",
    "brand:wikipedia": "en:Tesla, Inc.",
    "name": "Tesla",
    "shop": "car",
    "start_date": "2021-09-01"
  }
},
{
  "type": "node",
  "id": 8964632456,
  "lat": 34.2237727,
  "lon": 108.8930378,
  "tags": {
    "addr:city": "西安",
    "addr:district": "雁塔区",
    "addr:housenumber": "72",
    "addr:postcode": "710000",
    "addr:province": "陕西",
    "addr:street": "高新路",
    "brand": "特斯拉",
    "brand:en": "Tesla",
    "brand:wikidata": "Q478214",
    "brand:wikipedia": "en:Tesla, Inc.",
    "brand:zh": "特斯拉",
    "name": "Tesla",
    "name:en": "Tesla",
    "name:zh": "特斯拉",
    "opening_hours": "Mo-Su 10:00-22:00",
    "opening_hours:covid19": "open",
    "payment:cash": "yes",
    "payment:credit_cards": "yes",
    "second_hand": "yes",
    "service:vehicle:new_car_sales": "yes",
    "shop": "car"
  }
},
{
  "type": "node",
  "id": 8968582397,
  "lat": 55.3469913,
  "lon": 10.4137283,
  "tags": {
    "brand": "Tesla",
    "brand:wikidata": "Q478214",
    "brand:wikipedia": "en:Tesla, Inc.",
    "name": "Tesla Odense",
    "opening_hours": "Mo-Fr 09:00-17:00",
    "opening_hours:covid19": "open",
    "operator": "Tesla",
    "payment:bank_transfer": "yes",
    "payment:credit_cards": "yes",
    "phone": "+4578755447",
    "second_hand": "yes",
    "service:vehicle:batteries": "yes",
    "service:vehicle:car_repair": "yes",
    "service:vehicle:electrical": "yes",
    "service:vehicle:new_car_sales": "yes",
    "service:vehicle:used_car_sales": "yes",
    "shop": "car",
    "website": "https://www.tesla.com/"
  }
},
{
  "type": "node",
  "id": 8971677809,
  "lat": 56.1776985,
  "lon": 10.1388314,
  "tags": {
    "brand": "Tesla",
    "brand:wikidata": "Q478214",
    "brand:wikipedia": "en:Tesla, Inc.",
    "email": "aarhus_sales@tesla.com",
    "name": "Tesla Aarhus Sales",
    "opening_hours": "Mo-Fr 10:00-17:00",
    "opening_hours:covid19": "same",
    "operator": "Tesla",
    "payment:bank_transfer": "yes",
    "payment:credit_cards": "yes",
    "phone": "+4589887004",
    "second_hand": "yes",
    "service:vehicle:electrical": "yes",
    "service:vehicle:new_car_sales": "yes",
    "service:vehicle:used_car_sales": "yes",
    "shop": "car",
    "source": "https://www.tesla.com/da_DK/findus/location/supercharger/aarhusviborgvej",
    "website": "https://www.tesla.com/"
  }
},
{
  "type": "node",
  "id": 8975198050,
  "lat": 28.4454446,
  "lon": -81.3938469,
  "tags": {
    "brand": "Tesla",
    "brand:wikidata": "Q478214",
    "brand:wikipedia": "en:Tesla, Inc.",
    "name": "Tesla",
    "shop": "car"
  }
},
{
  "type": "node",
  "id": 8977404982,
  "lat": 38.9177906,
  "lon": -77.2207180,
  "tags": {
    "brand": "Tesla",
    "brand:wikidata": "Q478214",
    "brand:wikipedia": "en:Tesla, Inc.",
    "level": "2",
    "name": "Tesla",
    "shop": "car"
  }
},
{
  "type": "node",
  "id": 9013622497,
  "lat": 45.4288601,
  "lon": 9.3254785,
  "tags": {
    "addr:city": "Peschiera Borromeo",
    "addr:housenumber": "19/23",
    "addr:postcode": "20068",
    "addr:street": "Via Liguria",
    "name": "Tesla",
    "phone": "+390289730601",
    "shop": "car",
    "website": "https://www.tesla.com/it_IT"
  }
},
{
  "type": "node",
  "id": 9037774847,
  "lat": 46.0625838,
  "lon": 14.5591040,
  "tags": {
    "addr:city": "Ljubljana",
    "addr:housenumber": "11",
    "addr:postcode": "1000",
    "addr:street": "Leskoškova cesta",
    "brand": "Tesla",
    "brand:wikidata": "Q478214",
    "brand:wikipedia": "en:Tesla, Inc.",
    "name": "Tesla",
    "opening_hours": "Mo-Fr 09:00-18:00",
    "phone": "+38617774125",
    "shop": "car",
    "website": "https://www.tesla.com/sl_si/"
  }
},
{
  "type": "node",
  "id": 9081741461,
  "lat": 37.8072419,
  "lon": 112.5228747,
  "tags": {
    "brand": "特斯拉",
    "brand:en": "Tesla",
    "brand:wikidata": "Q478214",
    "brand:wikipedia": "en:Tesla, Inc.",
    "brand:zh": "特斯拉",
    "name": "Tesla",
    "name:en": "Tesla",
    "name:zh": "特斯拉",
    "shop": "car"
  }
},
{
  "type": "node",
  "id": 9100165231,
  "lat": 60.1447890,
  "lon": 10.2496260,
  "tags": {
    "brand": "Tesla",
    "brand:wikidata": "Q478214",
    "brand:wikipedia": "en:Tesla, Inc.",
    "name": "Tesla Hønefoss",
    "opening_hours": "Mo-Fr 08:00-17:00",
    "operator": "Tesla",
    "phone": "+47 23 96 02 85",
    "service:vehicle:car_repair": "yes",
    "shop": "car",
    "website": "https://www.tesla.com/no_NO/findus/location/service/honefoss"
  }
},
{
  "type": "node",
  "id": 9100239885,
  "lat": 45.0666538,
  "lon": 7.6821242,
  "tags": {
    "addr:city": "Torino",
    "addr:housenumber": "235",
    "addr:postcode": "10123",
    "addr:street": "Via Roma",
    "brand": "Tesla",
    "brand:wikidata": "Q478214",
    "brand:wikipedia": "en:Tesla, Inc.",
    "name": "Tesla Store",
    "opening_hours": "Mo-Sa 10:30-19:00",
    "phone": "+39 011 19115710",
    "shop": "car",
    "website": "http://www.tesla.com/"
  }
},
{
  "type": "node",
  "id": 9106510175,
  "lat": -33.7857183,
  "lon": 151.1980359,
  "tags": {
    "addr:housenumber": "70",
    "addr:street": "Lower Gibbes Street",
    "brand": "Tesla",
    "brand:wikidata": "Q478214",
    "name": "Tesla",
    "opening_hours": "Mo-Su 10:00-17:00",
    "operator": "Tesla Motors Australia Pty Ltd",
    "shop": "car"
  }
},
{
  "type": "node",
  "id": 9130335200,
  "lat": 46.2250887,
  "lon": 7.2982872,
  "tags": {
    "addr:housenumber": "11",
    "addr:street": "Route Cantonale",
    "name": "Tesla",
    "opening_hours": "Tu-Fr 09:00-18:30; Sa 08:00-17:00",
    "phone": "+41 79 808 57 59",
    "shop": "car",
    "website": "https://www.tesla.com/fr_ch"
  }
},
{
  "type": "node",
  "id": 9196357150,
  "lat": 60.0622371,
  "lon": 30.2797611,
  "tags": {
    "name": "Tesla",
    "shop": "car"
  }
},
{
  "type": "node",
  "id": 9196392527,
  "lat": 51.4389374,
  "lon": -0.9685164,
  "tags": {
    "brand": "Tesla",
    "brand:wikidata": "Q478214",
    "brand:wikipedia": "en:Tesla, Inc.",
    "name": "Tesla",
    "opening_hours": "Mo-Sa 10:00-17:00",
    "shop": "car"
  }
},
{
  "type": "node",
  "id": 9203662849,
  "lat": 36.0659788,
  "lon": 120.3730439,
  "tags": {
    "brand": "特斯拉",
    "brand:en": "Tesla",
    "brand:wikidata": "Q478214",
    "brand:wikipedia": "zh:特斯拉 (公司)",
    "brand:zh": "特斯拉",
    "name": "Tesla",
    "name:en": "Tesla",
    "name:zh": "特斯拉",
    "shop": "car"
  }
},
{
  "type": "node",
  "id": 9243219478,
  "lat": 33.0801424,
  "lon": -96.8259733,
  "tags": {
    "brand": "Tesla",
    "brand:wikidata": "Q478214",
    "brand:wikipedia": "en:Tesla, Inc.",
    "name": "Tesla",
    "shop": "car"
  }
},
{
  "type": "node",
  "id": 9280888352,
  "lat": 34.0141899,
  "lon": -118.4943120,
  "tags": {
    "brand": "Tesla",
    "brand:wikidata": "Q478214",
    "brand:wikipedia": "en:Tesla, Inc.",
    "level": "0",
    "level:ref": "1",
    "name": "Tesla",
    "shop": "car"
  }
},
{
  "type": "node",
  "id": 9371481395,
  "lat": 34.0580663,
  "lon": -118.4185078,
  "tags": {
    "brand": "Tesla",
    "brand:wikidata": "Q478214",
    "brand:wikipedia": "en:Tesla, Inc.",
    "level": "1",
    "name": "Tesla",
    "shop": "car"
  }
},
{
  "type": "node",
  "id": 9397956312,
  "lat": 25.6897322,
  "lon": -80.3124951,
  "tags": {
    "brand": "Tesla",
    "brand:wikidata": "Q478214",
    "brand:wikipedia": "en:Tesla, Inc.",
    "name": "Tesla",
    "shop": "car"
  }
},
{
  "type": "node",
  "id": 9480333556,
  "lat": 47.6166813,
  "lon": -122.2038898,
  "tags": {
    "brand": "Tesla",
    "brand:wikidata": "Q478214",
    "brand:wikipedia": "en:Tesla, Inc.",
    "name": "Tesla",
    "shop": "car"
  }
},
{
  "type": "node",
  "id": 9487964844,
  "lat": 64.1447525,
  "lon": -21.8544986,
  "tags": {
    "brand": "Tesla",
    "brand:wikidata": "Q478214",
    "brand:wikipedia": "en:Tesla, Inc.",
    "name": "Tesla á Íslandi",
    "shop": "car"
  }
},
{
  "type": "node",
  "id": 9576116598,
  "lat": 40.7962589,
  "lon": -73.6696231,
  "tags": {
    "brand": "Tesla",
    "brand:wikidata": "Q478214",
    "brand:wikipedia": "en:Tesla, Inc.",
    "name": "Tesla",
    "shop": "car",
    "source": "local knowledge"
  }
},
{
  "type": "node",
  "id": 9595170250,
  "lat": 47.5541802,
  "lon": 7.5925222,
  "tags": {
    "brand": "Tesla",
    "brand:wikidata": "Q478214",
    "brand:wikipedia": "en:Tesla, Inc.",
    "name": "Tesla Showroom",
    "shop": "car"
  }
},
{
  "type": "node",
  "id": 9653854601,
  "lat": 48.1409822,
  "lon": -1.7602227,
  "tags": {
    "addr:city": "Pacé",
    "addr:housenumber": "5",
    "addr:postcode": "35740",
    "addr:street": "Boulevard du Scorff",
    "brand": "Tesla",
    "brand:wikidata": "Q478214",
    "brand:wikipedia": "en:Tesla, Inc.",
    "name": "Tesla",
    "phone": "+33255030495",
    "ref:FR:SIRET": "52433526200316",
    "shop": "car",
    "website": "https://www.tesla.com/findus/location/store/rennesfr"
  }
},
{
  "type": "node",
  "id": 9656765766,
  "lat": 18.4210769,
  "lon": -66.0741028,
  "tags": {
    "brand": "Tesla",
    "brand:wikidata": "Q478214",
    "brand:wikipedia": "en:Tesla, Inc.",
    "name": "Tesla Showroom",
    "shop": "car"
  }
},
{
  "type": "node",
  "id": 9683789380,
  "lat": 41.0219265,
  "lon": 14.3261751,
  "tags": {
    "addr:city": "Marcianise",
    "addr:street": "Viale Carlo III di Borbone",
    "air_conditioning": "yes",
    "branch": "Caserta",
    "brand": "Tesla",
    "brand:wikidata": "Q478214",
    "name": "Tesla Caserta",
    "service:vehicle:Sale": "yes",
    "service:vehicle:batteries": "yes",
    "service:vehicle:car_repair": "yes",
    "service:vehicle:new_car": "yes",
    "shop": "car",
    "stroller": "limited",
    "wheelchair": "limited"
  }
},
{
  "type": "node",
  "id": 9833067070,
  "lat": 51.3384053,
  "lon": 12.2988530,
  "tags": {
    "addr:city": "Leipzig",
    "addr:housenumber": "7",
    "addr:postcode": "04179",
    "addr:street": "Schomburgkstraße",
    "brand": "Tesla",
    "brand:wikidata": "Q478214",
    "email": "leipzig_sales@tesla.com",
    "name": "Tesla Store Leipzig",
    "opening_hours": "Mo-Sa 09:00-18:00",
    "phone": "+49 (0) 341 33978558",
    "shop": "car",
    "website": "https://www.tesla.com/findus/location/store/leipzig"
  }
},
{
  "type": "node",
  "id": 9856612217,
  "lat": 34.0377360,
  "lon": -118.6857109,
  "tags": {
    "addr:city": "Malibu",
    "addr:housenumber": "23401",
    "addr:postcode": "90265",
    "addr:state": "CA",
    "addr:street": "Civic Center Way",
    "addr:unit": "2D",
    "branch": "Malibu",
    "brand": "Tesla",
    "brand:wikidata": "Q478214",
    "name": "Tesla",
    "opening_hours": "Mo-Su 10:00-18:00",
    "phone": "+1-310-494-4018",
    "shop": "car",
    "website": "https://www.tesla.com/findus/location/store/malibuciviccenter"
  }
},
{
  "type": "node",
  "id": 9869432759,
  "lat": 38.9445868,
  "lon": -94.6075064,
  "tags": {
    "brand": "Tesla",
    "brand:wikidata": "Q478214",
    "name": "Tesla",
    "shop": "car"
  }
},
{
  "type": "node",
  "id": 9965977461,
  "lat": 52.5110114,
  "lon": 13.3831610,
  "tags": {
    "brand": "Tesla",
    "brand:wikidata": "Q478214",
    "check_date": "2022-08-20",
    "name": "Tesla",
    "shop": "car"
  }
},
{
  "type": "node",
  "id": 10046391613,
  "lat": 48.1675812,
  "lon": 12.1610200,
  "tags": {
    "addr:city": "Kirchdorf",
    "addr:country": "DE",
    "addr:housenumber": "1",
    "addr:postcode": "83527",
    "addr:street": "Alustraße",
    "brand": "Tesla",
    "brand:wikidata": "Q478214",
    "brand:wikipedia": "en:Tesla, Inc.",
    "description": "In Bauteil 2,4,6",
    "name": "Tesla",
    "office": "company",
    "service:vehicle:delivery": "yes",
    "shop": "car"
  }
},
{
  "type": "node",
  "id": 10115486759,
  "lat": -33.9065111,
  "lon": 151.1927408,
  "tags": {
    "addr:housenumber": "15",
    "addr:street": "Maddox Street",
    "brand": "Tesla",
    "brand:wikidata": "Q478214",
    "name": "Tesla Alexandria Delivery Centre",
    "shop": "car"
  }
},
{
  "type": "node",
  "id": 10250450691,
  "lat": 48.0375627,
  "lon": 7.8640799,
  "tags": {
    "addr:city": "Gundelfingen",
    "addr:housenumber": "3",
    "addr:postcode": "79194",
    "addr:street": "Alte Bundesstraße",
    "brand": "Tesla",
    "brand:wikidata": "Q478214",
    "email": "freiburg_sales@tesla.com",
    "name": "Tesla",
    "opening_hours": "Mo-Fr 08:00-17:00",
    "phone": "+49 761 60079003",
    "shop": "car",
    "website": "https://www.tesla.com/findus/location/store/9093"
  }
},
{
  "type": "node",
  "id": 10266695995,
  "lat": 35.6980458,
  "lon": 139.7538942,
  "tags": {
    "brand": "Tesla",
    "brand:wikidata": "Q478214",
    "name": "Tesla",
    "shop": "car"
  }
},
{
  "type": "node",
  "id": 10307288877,
  "lat": 44.3009315,
  "lon": -79.6820755,
  "tags": {
    "addr:city": "Innisfil",
    "addr:housenumber": "2474",
    "addr:postcode": "L9S 0A3",
    "addr:street": "Doral Drive",
    "brand": "Tesla",
    "brand:wikidata": "Q478214",
    "name": "Tesla",
    "phone": "+1-249-444-0209",
    "shop": "car",
    "website": "https://www.tesla.com/findus/location/store/barrie2474"
  }
},
{
  "type": "node",
  "id": 10617287129,
  "lat": 36.9966019,
  "lon": -121.5576575,
  "tags": {
    "addr:city": "Gilroy",
    "addr:housenumber": "500",
    "addr:postcode": "95020",
    "addr:state": "CA",
    "addr:street": "Automall Drive",
    "name": "Tesla",
    "operator": "Tesla Incorporated",
    "shop": "car",
    "website": "https://www.tesla.com/"
  }
},
{
  "type": "node",
  "id": 10759612777,
  "lat": 37.8963398,
  "lon": -122.0582530,
  "tags": {
    "brand": "Tesla",
    "brand:wikidata": "Q478214",
    "name": "Tesla",
    "shop": "car"
  }
},
{
  "type": "node",
  "id": 10759842807,
  "lat": 38.2248286,
  "lon": -85.5419315,
  "tags": {
    "name": "Tesla Service Center",
    "shop": "car"
  }
},
{
  "type": "node",
  "id": 10787198008,
  "lat": 41.0785123,
  "lon": 29.0112079,
  "tags": {
    "brand": "Tesla",
    "brand:wikidata": "Q478214",
    "name": "Tesla",
    "shop": "car"
  }
},
{
  "type": "node",
  "id": 10802505304,
  "lat": 39.7642121,
  "lon": -104.8489483,
  "tags": {
    "brand": "Tesla",
    "brand:wikidata": "Q478214",
    "name": "Tesla",
    "shop": "car"
  }
},
{
  "type": "node",
  "id": 10845011773,
  "lat": 59.2378889,
  "lon": 15.1470015,
  "tags": {
    "addr:city": "Örebro",
    "addr:country": "SE",
    "addr:county": "Örebro län",
    "addr:municipality": "Örebro kommun",
    "addr:street": "Salamandervägen",
    "brand": "Tesla",
    "brand:wikidata": "Q478214",
    "brand:wikipedia": "en:Tesla, Inc.",
    "name": "Tesla",
    "shop": "car"
  }
},
{
  "type": "node",
  "id": 10944130471,
  "lat": 40.3612605,
  "lon": -80.1215073,
  "tags": {
    "addr:city": "Bridgeville",
    "addr:housenumber": "1400",
    "addr:postcode": "15017",
    "addr:state": "PA",
    "addr:street": "Brockwell Street",
    "brand": "Tesla",
    "brand:wikidata": "Q478214",
    "name": "Tesla",
    "shop": "car",
    "website": "https://www.tesla.com/findus/location/store/NA-US-PA-Pittsburgh-Presto"
  }
},
{
  "type": "node",
  "id": 10982008733,
  "lat": 43.1827368,
  "lon": -2.6591480,
  "tags": {
    "brand": "Tesla",
    "brand:wikidata": "Q478214",
    "name": "Tesla - Store & Service",
    "service:vehicle:car_repair": "yes",
    "service:vehicle:new_car_sales": "yes",
    "shop": "car",
    "website": "https://www.tesla.com/findus?v=2&bounds=43.21204667467026%2C-2.568341508837886%2C43.15271520703934%2C-2.744122758837886&zoom=14&filters=store&location=bilbao"
  }
},
{
  "type": "node",
  "id": 10982017321,
  "lat": 41.3521164,
  "lon": 2.1350162,
  "tags": {
    "addr:city": "Barcelona",
    "addr:housenumber": "38-42",
    "addr:postcode": "08038",
    "addr:street": "Carrer de la Metal·lúrgia",
    "brand": "Tesla",
    "brand:wikidata": "Q478214",
    "email": "barcelona_sales@tesla.com",
    "name": "Tesla - Store & Service",
    "phone": "+34 935 222 577",
    "second_hand": "yes",
    "service:vehicle:car_repair": "yes",
    "service:vehicle:new_car_sales": "yes",
    "shop": "car",
    "website": "https://www.tesla.com/findus?v=2&bounds=41.37118147869463%2C2.1790554466675838%2C41.34064345778448%2C2.0911648216675838&zoom=15&filters=store&location=barcelonametalurgia"
  }
}

  ]
}
